STARLINK-32379          
1 61851U 24202G   26068.45941736 -.00000713  00000+0 -16398-4 0  9995
2 61851  42.9987 227.9359 0000686 260.6359  99.4415 15.27570727 75423
TRANSPORTER-12 OBJECT BT
1 62674U 25009BT  26068.71416991  .00013824  00000+0  51029-3 0  9998
2 62674  97.4094 151.5992 0003682 313.5044  46.5889 15.27872239121360
